FENGYUN 1C DEB          
1 38170U 99025ERT 17345.34427890  .00000795  00000-0  36811-3 0  9994
2 38170  98.8968  41.3803 0143591 164.3873 196.1799 14.18294113229024
